NORAD_CAT_ID,OBJECT_NAME,OBJECT_TYPE,EPOCH,MEAN_MOTION,ECCENTRICITY,INCLINATION,RA_OF_ASC_NODE,ARG_OF_PERICENTER,MEAN_ANOMALY,BSTAR,MEAN_MOTION_DOT,MEAN_MOTION_DDOT,TLE_LINE0,TLE_LINE1,TLE_LINE2,SEMIMAJOR_AXIS,PERIOD,APOGEE,PERIGEE,DECAYED
52601.0,STARLINK-4027,PAYLOAD,2023-09-01 23:45:09,15.08827016,0.0003554,53.211,87.8186,96.2631,263.8766,0.00022212,3.247e-05,0.0,0 STARLINK-4027,1 52601U 22052D   23244.98969806  .00003247  00000-0  22212-3 0  9993,2 52601  53.2110  87.8186 0003554  96.2631 263.8766 15.08827016 72386,6917.92,95.438,542.244,537.326,0.0
52601.0,STARLINK-4027,PAYLOAD,2023-09-02 06:06:44,15.08793643,0.0003692,53.21,86.6284,92.6554,267.486,0.00072638,0.00011277,0.0,0 STARLINK-4027,1 52601U 22052D   23245.25467801  .00011277  00000-0  72638-3 0  9991,2 52601  53.2100  86.6284 0003692  92.6554 267.4860 15.08793643 72426,6918.022,95.44,542.441,537.333,0.0
52601.0,STARLINK-4027,PAYLOAD,2023-09-02 17:14:24,15.08853387,0.0001371,53.2154,84.5451,83.631,276.4839,-0.00016309,-2.884e-05,0.0,0 STARLINK-4027,1 52601U 22052D   23245.71833494 -.00002884  00000-0 -16309-3 0  9996,2 52601  53.2154  84.5451 0001371  83.6310 276.4839 15.08853387 72495,6917.839,95.437,540.653,538.756,0.0
52601.0,STARLINK-4027,PAYLOAD,2023-09-02 18:49:47,15.08838882,0.000145,53.2173,84.2464,97.295,262.8207,0.00010943,1.454e-05,0.0,0 STARLINK-4027,1 52601U 22052D   23245.78457205  .00001454  00000-0  10943-3 0  9993,2 52601  53.2173  84.2464 0001450  97.2950 262.8207 15.08838882 72936,6917.884,95.438,540.752,538.746,0.0
52601.0,STARLINK-4027,PAYLOAD,2023-09-03 14:00:01,15.0884597,0.0001369,53.216,80.661,96.0075,285.2465,0.0010025,0.00015705,0.0,0 STARLINK-4027,1 52601U 22052D   23246.58334491  .00015705  00000-0  10025-2 0  9997,2 52601  53.2160  80.6610 0001369  96.0075 285.2465 15.08845970  5857,6917.862,95.437,540.674,538.78,0.0
52601.0,STARLINK-4027,PAYLOAD,2023-09-03 22:00:00,15.08850769,0.000137,53.2159,79.1662,83.6734,309.213,-0.0028818,-0.00045873,0.0,0 STARLINK-4027,1 52601U 22052D   23246.91667824 -.00045873  00000-0 -28818-2 0  9993,2 52601  53.2159  79.1662 0001370  83.6734 309.2130 15.08850769 72673,6917.847,95.437,540.66,538.765,0.0
52601.0,STARLINK-4027,PAYLOAD,2023-09-03 23:26:43,15.08844811,0.0001343,53.2171,78.8935,82.678,277.4365,0.00015208,2.134e-05,0.0,0 STARLINK-4027,1 52601U 22052D   23246.97688899  .00002134  00000-0  15208-3 0  9995,2 52601  53.2171  78.8935 0001343  82.6780 277.4365 15.08844811 72684,6917.866,95.437,540.66,538.802,0.0
52601.0,STARLINK-4027,PAYLOAD,2023-09-04 05:48:16,15.08837458,0.0002036,53.2166,77.7051,80.7043,279.418,8.9695e-05,1.139e-05,0.0,0 STARLINK-4027,1 52601U 22052D   23247.24185876  .00001139  00000-0  89695-4 0  9999,2 52601  53.2166  77.7051 0002036  80.7043 279.4180 15.08837458 72727,6917.888,95.438,541.162,538.345,0.0
52601.0,STARLINK-4027,PAYLOAD,2023-09-05 12:00:36,15.08837194,9.54e-05,53.2175,72.0544,76.8078,283.302,7.7895e-05,9.52e-06,0.0,0 STARLINK-4027,1 52601U 22052D   23248.50041866  .00000952  00000-0  77895-4 0  9990,2 52601  53.2175  72.0544 0000954  76.8078 283.3020 15.08837194 72918,6917.889,95.438,540.414,539.094,0.0
52601.0,STARLINK-4027,PAYLOAD,2023-09-05 13:35:59,15.08840557,0.000101,53.218,71.7578,96.0429,264.0678,5.602e-05,6.04e-06,0.0,0 STARLINK-4027,1 52601U 22052D   23248.56665672  .00000604  00000-0  56020-4 0  9994,2 52601  53.2180  71.7578 0001010  96.0429 264.0678 15.08840557 73356,6917.879,95.438,540.442,539.045,0.0
52601.0,STARLINK-4027,PAYLOAD,2023-09-06 11:51:22,15.08840212,9.16e-05,53.2167,67.5949,104.743,255.3664,0.00010832,1.437e-05,0.0,0 STARLINK-4027,1 52601U 22052D   23249.49401444  .00001437  00000-0  10832-3 0  9997,2 52601  53.2167  67.5949 0000916 104.7430 255.3664 15.08840212 73490,6917.88,95.438,540.378,539.111,0.0
52601.0,STARLINK-4027,PAYLOAD,2023-09-07 11:42:09,15.08846936,0.0001449,53.218,63.1355,86.809,273.3068,4.3763e-05,4.09e-06,0.0,0 STARLINK-4027,1 52601U 22052D   23250.48761432  .00000409  00000-0  43763-4 0  9992,2 52601  53.2180  63.1355 0001449  86.8090 273.3068 15.08846936 73646,6917.859,95.437,540.727,538.722,0.0
52601.0,STARLINK-4027,PAYLOAD,2023-09-07 18:03:42,15.08848854,0.0001221,53.2182,61.9458,81.8961,278.217,3.6581e-05,2.94e-06,0.0,0 STARLINK-4027,1 52601U 22052D   23250.75257242  .00000294  00000-0  36581-4 0  9993,2 52601  53.2182  61.9458 0001221  81.8961 278.2170 15.08848854 73254,6917.853,95.437,540.563,538.874,0.0
52601.0,STARLINK-4027,PAYLOAD,2023-09-07 21:14:28,15.08849678,0.0001459,53.2185,61.3505,90.5527,269.5632,6.2059e-05,7e-06,0.0,0 STARLINK-4027,1 52601U 22052D   23250.88505088  .00000700  00000-0  62059-4 0  9992,2 52601  53.2185  61.3505 0001459  90.5527 269.5632 15.08849678 73703,6917.851,95.437,540.725,538.706,0.0
52601.0,STARLINK-4027,PAYLOAD,2023-09-07 22:49:51,15.08853994,0.0001173,53.2181,61.0523,91.5933,268.5193,5.0285e-05,5.13e-06,0.0,0 STARLINK-4027,1 52601U 22052D   23250.95128730  .00000513  00000-0  50285-4 0  9995,2 52601  53.2181  61.0523 0001173  91.5933 268.5193 15.08853994 73719,6917.838,95.437,540.514,538.891,0.0
52601.0,STARLINK-4027,PAYLOAD,2023-09-08 17:54:29,15.08838562,0.0001954,53.2191,57.4834,111.4386,248.6814,4.5123e-05,4.3e-06,0.0,0 STARLINK-4027,1 52601U 22052D   23251.74617824  .00000430  00000-0  45123-4 0  9993,2 52601  53.2191  57.4834 0001954 111.4386 248.6814 15.08838562 73404,6917.885,95.438,541.102,538.398,0.0
52601.0,STARLINK-4027,PAYLOAD,2023-09-08 21:05:15,15.08841344,0.0001319,53.2185,56.8892,97.5281,262.5861,8.0673e-05,9.96e-06,0.0,0 STARLINK-4027,1 52601U 22052D   23251.87865706  .00000996  00000-0  80673-4 0  9997,2 52601  53.2185  56.8892 0001319  97.5281 262.5861 15.08841344 73855,6917.876,95.437,540.654,538.829,0.0
52601.0,STARLINK-4027,PAYLOAD,2023-09-09 11:23:44,15.0884061,0.0001304,53.2185,54.213,97.4041,262.7099,3.0769e-05,2.02e-06,0.0,0 STARLINK-4027,1 52601U 22052D   23252.47481982  .00000202  00000-0  30769-4 0  9995,2 52601  53.2185  54.2130 0001304  97.4041 262.7099 15.08840610 73949,6917.879,95.438,540.646,538.841,0.0
52601.0,STARLINK-4027,PAYLOAD,2023-09-10 09:39:08,15.0884207,0.0001539,53.2172,50.0517,83.1447,276.972,9.2376e-06,-1.41e-06,0.0,0 STARLINK-4027,1 52601U 22052D   23253.40217735 -.00000141  00000-0  92376-5 0  9998,2 52601  53.2172  50.0517 0001539  83.1447 276.9720 15.08842070 73658,6917.874,95.437,540.804,538.674,0.0
52601.0,STARLINK-4027,PAYLOAD,2023-09-11 14:16:05,15.08834491,0.0001326,53.2192,44.7,95.8157,264.2986,-2.5517e-05,-6.94e-06,0.0,0 STARLINK-4027,1 52601U 22052D   23254.59450316 -.00000694  00000-0 -25517-4 0  9999,2 52601  53.2192  44.7000 0001326  95.8157 264.2986 15.08834491 74269,6917.897,95.438,540.68,538.845,0.0
52601.0,STARLINK-4027,PAYLOAD,2023-09-11 17:26:51,15.08841369,0.0001347,53.2197,44.1038,85.7701,274.3445,5.0595e-05,5.17e-06,0.0,0 STARLINK-4027,1 52601U 22052D   23254.72698363  .00000517  00000-0  50595-4 0  9996,2 52601  53.2197  44.1038 0001347  85.7701 274.3445 15.08841369 73853,6917.876,95.437,540.673,538.809,0.0
52601.0,STARLINK-4027,PAYLOAD,2023-09-12 09:20:43,15.08838651,0.0001263,53.2192,41.1303,92.8966,267.2171,6.12e-05,6.86e-06,0.0,0 STARLINK-4027,1 52601U 22052D   23255.38938664  .00000686  00000-0  61200-4 0  9992,2 52601  53.2192  41.1303 0001263  92.8966 267.2171 15.08838651 74385,6917.885,95.438,540.623,538.876,0.0
52601.0,STARLINK-4027,PAYLOAD,2023-09-12 17:17:38,15.08842902,0.0001237,53.2173,39.6431,85.3691,274.7442,0.0001081,1.433e-05,0.0,0 STARLINK-4027,1 52601U 22052D   23255.72058186  .00001433  00000-0  10810-3 0  9993,2 52601  53.2173  39.6431 0001237  85.3691 274.7442 15.08842902 74435,6917.872,95.437,540.592,538.881,0.0
52601.0,STARLINK-4027,PAYLOAD,2023-09-13 09:11:29,15.08846744,0.0001243,53.2177,36.6689,87.6347,272.4788,0.00025889,3.835e-05,0.0,0 STARLINK-4027,1 52601U 22052D   23256.38297978  .00003835  00000-0  25889-3 0  9990,2 52601  53.2177  36.6689 0001243  87.6347 272.4788 15.08846744 74101,6917.86,95.437,540.585,538.865,0.0
52601.0,STARLINK-4027,PAYLOAD,2023-09-13 15:33:01,15.0885591,0.0001273,53.2183,35.4812,85.4162,274.6975,0.00028775,4.297e-05,0.0,0 STARLINK-4027,1 52601U 22052D   23256.64793446  .00004297  00000-0  28775-3 0  9990,2 52601  53.2183  35.4812 0001273  85.4162 274.6975 15.08855910 74575,6917.832,95.437,540.577,538.816,0.0
52601.0,STARLINK-4027,PAYLOAD,2023-09-14 09:02:17,15.08835226,0.0001558,53.2184,32.2097,83.963,276.154,-1.8095e-05,-5.76e-06,0.0,0 STARLINK-4027,1 52601U 22052D   23257.37658699 -.00000576  00000-0 -18095-4 0  9994,2 52601  53.2184  32.2097 0001558  83.9630 276.1540 15.08835226 74253,6917.895,95.438,540.838,538.682,0.0
52601.0,STARLINK-4027,PAYLOAD,2023-09-14 20:09:59,15.08831748,0.0001085,53.2183,30.1258,90.1008,270.0109,-7.4702e-05,-1.476e-05,0.0,0 STARLINK-4027,1 52601U 22052D   23257.84027116 -.00001476  00000-0 -74702-4 0  9997,2 52601  53.2183  30.1258 0001085  90.1008 270.0109 15.08831748 74756,6917.906,95.438,540.521,539.02,0.0
52601.0,STARLINK-4027,PAYLOAD,2023-09-15 13:39:13,15.08847563,0.0001319,53.2189,26.8577,67.8768,292.2364,0.0002289,3.358e-05,0.0,0 STARLINK-4027,1 52601U 22052D   23258.56890768  .00003358  00000-0  22890-3 0  9997,2 52601  53.2189  26.8577 0001319  67.8768 292.2364 15.08847563 74865,6917.857,95.437,540.635,538.81,0.0
52601.0,STARLINK-4027,PAYLOAD,2023-09-15 15:14:36,15.08849742,0.000135,53.2187,26.5598,68.6123,291.5013,0.00040037,6.091e-05,0.0,0 STARLINK-4027,1 52601U 22052D   23258.63514852  .00006091  00000-0  40037-3 0  9992,2 52601  53.2187  26.5598 0001350  68.6123 291.5013 15.08849742 74440,6917.851,95.437,540.65,538.782,0.0
52601.0,STARLINK-4027,PAYLOAD,2023-09-16 08:43:51,15.08843966,0.0001661,53.2187,23.2913,60.1129,300.0028,0.00032242,4.848e-05,0.0,0 STARLINK-4027,1 52601U 22052D   23259.36379333  .00004848  00000-0  32242-3 0  9993,2 52601  53.2187  23.2913 0001661  60.1129 300.0028 15.08843966 74559,6917.868,95.437,540.882,538.584,0.0
